CCSDS_OMM_VERS = 2.0
CREATION_DATE  = 
ORIGINATOR     = 

OBJECT_NAME    = STARLINK-36366
OBJECT_ID      = 2026-044X
CENTER_NAME    = EARTH
REF_FRAME      = TEME
TIME_SYSTEM    = UTC
MEAN_ELEMENT_THEORY = SGP/SGP4

EPOCH          = 2026-03-24T10:00:01.999584
MEAN_MOTION    = 15.75285449
ECCENTRICITY   = .0001806
INCLINATION    = 97.2850
RA_OF_ASC_NODE = 44.3170
ARG_OF_PERICENTER = 104.6953
MEAN_ANOMALY   = 148.6177

EPHEMERIS_TYPE = 0
CLASSIFICATION_TYPE = U
NORAD_CAT_ID   = 68122
ELEMENT_SET_NO = 999
REV_AT_EPOCH   = 376
BSTAR          = -.15836E-2
MEAN_MOTION_DOT = -.231044E-2
MEAN_MOTION_DDOT = 0

CCSDS_OMM_VERS = 2.0
CREATION_DATE  = 
ORIGINATOR     = 

OBJECT_NAME    = STARLINK-36922
OBJECT_ID      = 2026-044Y
CENTER_NAME    = EARTH
REF_FRAME      = TEME
TIME_SYSTEM    = UTC
MEAN_ELEMENT_THEORY = SGP/SGP4

EPOCH          = 2026-03-24T10:00:01.999584
MEAN_MOTION    = 15.75281542
ECCENTRICITY   = .0001319
INCLINATION    = 97.2850
RA_OF_ASC_NODE = 44.3238
ARG_OF_PERICENTER = 84.9700
MEAN_ANOMALY   = 182.3339

EPHEMERIS_TYPE = 0
CLASSIFICATION_TYPE = U
NORAD_CAT_ID   = 68123
ELEMENT_SET_NO = 999
REV_AT_EPOCH   = 376
BSTAR          = -.1229E-2
MEAN_MOTION_DOT = -.180342E-2
MEAN_MOTION_DDOT = 0

CCSDS_OMM_VERS = 2.0
CREATION_DATE  = 
ORIGINATOR     = 

OBJECT_NAME    = STARLINK-36938
OBJECT_ID      = 2026-044Z
CENTER_NAME    = EARTH
REF_FRAME      = TEME
TIME_SYSTEM    = UTC
MEAN_ELEMENT_THEORY = SGP/SGP4

EPOCH          = 2026-03-24T13:10:53.454720
MEAN_MOTION    = 15.80956107
ECCENTRICITY   = .0002042
INCLINATION    = 97.2839
RA_OF_ASC_NODE = 44.4888
ARG_OF_PERICENTER = 112.1445
MEAN_ANOMALY   = 248.0040

EPHEMERIS_TYPE = 0
CLASSIFICATION_TYPE = U
NORAD_CAT_ID   = 68124
ELEMENT_SET_NO = 999
REV_AT_EPOCH   = 382
BSTAR          = .76573E-3
MEAN_MOTION_DOT = .150044E-2
MEAN_MOTION_DDOT = 0

CCSDS_OMM_VERS = 2.0
CREATION_DATE  = 
ORIGINATOR     = 

OBJECT_NAME    = STARLINK-36839
OBJECT_ID      = 2026-044AA
CENTER_NAME    = EARTH
REF_FRAME      = TEME
TIME_SYSTEM    = UTC
MEAN_ELEMENT_THEORY = SGP/SGP4

EPOCH          = 2026-03-24T10:00:01.999584
MEAN_MOTION    = 15.75396089
ECCENTRICITY   = .000141
INCLINATION    = 97.2850
RA_OF_ASC_NODE = 44.3212
ARG_OF_PERICENTER = 103.7449
MEAN_ANOMALY   = 157.5497

EPHEMERIS_TYPE = 0
CLASSIFICATION_TYPE = U
NORAD_CAT_ID   = 68125
ELEMENT_SET_NO = 999
REV_AT_EPOCH   = 372
BSTAR          = -.23281E-2
MEAN_MOTION_DOT = -.337053E-2
MEAN_MOTION_DDOT = 0

CCSDS_OMM_VERS = 2.0
CREATION_DATE  = 
ORIGINATOR     = 

OBJECT_NAME    = ECHOSTAR 25
OBJECT_ID      = 2026-045A
CENTER_NAME    = EARTH
REF_FRAME      = TEME
TIME_SYSTEM    = UTC
MEAN_ELEMENT_THEORY = SGP/SGP4

EPOCH          = 2026-03-23T17:47:52.658880
MEAN_MOTION    = 1.00483616
ECCENTRICITY   = .00014346
INCLINATION    = 0.0662
RA_OF_ASC_NODE = 279.4493
ARG_OF_PERICENTER = 192.5501
MEAN_ANOMALY   = 206.5579

EPHEMERIS_TYPE = 0
CLASSIFICATION_TYPE = U
NORAD_CAT_ID   = 68126
ELEMENT_SET_NO = 999
REV_AT_EPOCH   = 13
BSTAR          = 0
MEAN_MOTION_DOT = .31E-6
MEAN_MOTION_DDOT = 0

CCSDS_OMM_VERS = 2.0
CREATION_DATE  = 
ORIGINATOR     = 

OBJECT_NAME    = ICOR SV
OBJECT_ID      = 2026-046A
CENTER_NAME    = EARTH
REF_FRAME      = TEME
TIME_SYSTEM    = UTC
MEAN_ELEMENT_THEORY = SGP/SGP4

EPOCH          = 2026-03-24T13:23:56.573952
MEAN_MOTION    = 15.90513368
ECCENTRICITY   = .0115038
INCLINATION    = 123.0774
RA_OF_ASC_NODE = 273.1340
ARG_OF_PERICENTER = 211.4759
MEAN_ANOMALY   = 147.9392

EPHEMERIS_TYPE = 0
CLASSIFICATION_TYPE = U
NORAD_CAT_ID   = 68127
ELEMENT_SET_NO = 999
REV_AT_EPOCH   = 196
BSTAR          = .61523E-3
MEAN_MOTION_DOT = .355749E-2
MEAN_MOTION_DDOT = .59028E-4

CCSDS_OMM_VERS = 2.0
CREATION_DATE  = 
ORIGINATOR     = 

OBJECT_NAME    = FIREFLY ALPHA R/B
OBJECT_ID      = 2026-046B
CENTER_NAME    = EARTH
REF_FRAME      = TEME
TIME_SYSTEM    = UTC
MEAN_ELEMENT_THEORY = SGP/SGP4

EPOCH          = 2026-03-24T06:43:44.266944
MEAN_MOTION    = 15.56868977
ECCENTRICITY   = .0015298
INCLINATION    = 123.0939
RA_OF_ASC_NODE = 269.4387
ARG_OF_PERICENTER = 9.5402
MEAN_ANOMALY   = 350.5946

EPHEMERIS_TYPE = 0
CLASSIFICATION_TYPE = U
NORAD_CAT_ID   = 68128
ELEMENT_SET_NO = 999
REV_AT_EPOCH   = 191
BSTAR          = .50798E-3
MEAN_MOTION_DOT = .36973E-3
MEAN_MOTION_DDOT = 0

CCSDS_OMM_VERS = 2.0
CREATION_DATE  = 
ORIGINATOR     = 

OBJECT_NAME    = GUOWANG GROUP 20 OBJECT A
OBJECT_ID      = 2026-047A
CENTER_NAME    = EARTH
REF_FRAME      = TEME
TIME_SYSTEM    = UTC
MEAN_ELEMENT_THEORY = SGP/SGP4

EPOCH          = 2026-03-24T04:27:35.383680
MEAN_MOTION    = 14.00118621
ECCENTRICITY   = .0000523
INCLINATION    = 50.0052
RA_OF_ASC_NODE = 11.4119
ARG_OF_PERICENTER = 284.8650
MEAN_ANOMALY   = 75.2195

EPHEMERIS_TYPE = 0
CLASSIFICATION_TYPE = U
NORAD_CAT_ID   = 68129
ELEMENT_SET_NO = 999
REV_AT_EPOCH   = 160
BSTAR          = .28193E-4
MEAN_MOTION_DOT = -.108E-5
MEAN_MOTION_DDOT = 0

CCSDS_OMM_VERS = 2.0
CREATION_DATE  = 
ORIGINATOR     = 

OBJECT_NAME    = GUOWANG GROUP 20 OBJECT B
OBJECT_ID      = 2026-047B
CENTER_NAME    = EARTH
REF_FRAME      = TEME
TIME_SYSTEM    = UTC
MEAN_ELEMENT_THEORY = SGP/SGP4

EPOCH          = 2026-03-24T11:16:10.999200
MEAN_MOTION    = 14.00458019
ECCENTRICITY   = .0000229
INCLINATION    = 50.0060
RA_OF_ASC_NODE = 10.2480
ARG_OF_PERICENTER = 293.0264
MEAN_ANOMALY   = 67.0614

EPHEMERIS_TYPE = 0
CLASSIFICATION_TYPE = U
NORAD_CAT_ID   = 68130
ELEMENT_SET_NO = 999
REV_AT_EPOCH   = 163
BSTAR          = .49172E-4
MEAN_MOTION_DOT = -.77E-6
MEAN_MOTION_DDOT = 0

CCSDS_OMM_VERS = 2.0
CREATION_DATE  = 
ORIGINATOR     = 

OBJECT_NAME    = GUOWANG GROUP 20 OBJECT C
OBJECT_ID      = 2026-047C
CENTER_NAME    = EARTH
REF_FRAME      = TEME
TIME_SYSTEM    = UTC
MEAN_ELEMENT_THEORY = SGP/SGP4

EPOCH          = 2026-03-23T21:32:20.729760
MEAN_MOTION    = 14.00819949
ECCENTRICITY   = .0001695
INCLINATION    = 50.0005
RA_OF_ASC_NODE = 12.5340
ARG_OF_PERICENTER = 156.1490
MEAN_ANOMALY   = 203.9492

EPHEMERIS_TYPE = 0
CLASSIFICATION_TYPE = U
NORAD_CAT_ID   = 68131
ELEMENT_SET_NO = 999
REV_AT_EPOCH   = 156
BSTAR          = .22265347E-4
MEAN_MOTION_DOT = -.117E-5
MEAN_MOTION_DDOT = 0

CCSDS_OMM_VERS = 2.0
CREATION_DATE  = 
ORIGINATOR     = 

OBJECT_NAME    = GUOWANG GROUP 20 OBJECT D
OBJECT_ID      = 2026-047D
CENTER_NAME    = EARTH
REF_FRAME      = TEME
TIME_SYSTEM    = UTC
MEAN_ELEMENT_THEORY = SGP/SGP4

EPOCH          = 2026-03-22T13:00:29.222496
MEAN_MOTION    = 14.02976610
ECCENTRICITY   = .00032469
INCLINATION    = 50.0070
RA_OF_ASC_NODE = 18.0496
ARG_OF_PERICENTER = 299.4777
MEAN_ANOMALY   = 60.5803

EPHEMERIS_TYPE = 0
CLASSIFICATION_TYPE = U
NORAD_CAT_ID   = 68132
ELEMENT_SET_NO = 999
REV_AT_EPOCH   = 136
BSTAR          = .36541126E-4
MEAN_MOTION_DOT = -.94E-6
MEAN_MOTION_DDOT = 0

CCSDS_OMM_VERS = 2.0
CREATION_DATE  = 
ORIGINATOR     = 

OBJECT_NAME    = GUOWANG GROUP 20 OBJECT E
OBJECT_ID      = 2026-047E
CENTER_NAME    = EARTH
REF_FRAME      = TEME
TIME_SYSTEM    = UTC
MEAN_ELEMENT_THEORY = SGP/SGP4

EPOCH          = 2026-03-22T07:51:30.148128
MEAN_MOTION    = 14.03282701
ECCENTRICITY   = .00018453
INCLINATION    = 50.0037
RA_OF_ASC_NODE = 18.9087
ARG_OF_PERICENTER = 286.6306
MEAN_ANOMALY   = 73.4395

EPHEMERIS_TYPE = 0
CLASSIFICATION_TYPE = U
NORAD_CAT_ID   = 68133
ELEMENT_SET_NO = 999
REV_AT_EPOCH   = 134
BSTAR          = .21599298E-4
MEAN_MOTION_DOT = -.117E-5
MEAN_MOTION_DDOT = 0

